NORAD_CAT_ID,OBJECT_NAME,OBJECT_TYPE,EPOCH,MEAN_MOTION,ECCENTRICITY,INCLINATION,RA_OF_ASC_NODE,ARG_OF_PERICENTER,MEAN_ANOMALY,BSTAR,MEAN_MOTION_DOT,MEAN_MOTION_DDOT,TLE_LINE0,TLE_LINE1,TLE_LINE2,SEMIMAJOR_AXIS,PERIOD,APOGEE,PERIGEE,DECAYED
51741.0,STARLINK-3520,PAYLOAD,2022-09-08 14:00:01,15.0879783,0.0001607,53.217,296.7612,49.7081,192.0124,0.0032525999999999,0.00051798,0.0,0 STARLINK-3520,1 51741U 22016AD  22251.58334491  .00051798  00000-0  32526-2 0  9998,2 51741  53.2170 296.7612 0001607  49.7081 192.0124 15.08797830  1305,6918.009,95.44,540.986,538.763,0.0
51741.0,STARLINK-3520,PAYLOAD,2022-09-09 00:00:02,15.08807552,0.0001447,53.217,294.8887,57.7108,288.5495,0.0035029,0.00055853,0.0,0 STARLINK-3520,1 51741U 22016AD  22252.00002315  .00055853  00000-0  35029-2 0  9990,2 51741  53.2170 294.8887 0001447  57.7108 288.5495 15.08807552 31789,6917.98,95.44,540.846,538.844,0.0
51741.0,STARLINK-3520,PAYLOAD,2022-09-09 14:00:01,15.08830665,0.0001664,53.2168,292.272,50.3168,226.1623,0.0020632,0.00032692,0.0,0 STARLINK-3520,1 51741U 22016AD  22252.58334491  .00032692  00000-0  20632-2 0  9996,2 51741  53.2168 292.2720 0001664  50.3168 226.1623 15.08830665  1307,6917.909000000002,95.438,540.925,538.623,0.0
51741.0,STARLINK-3520,PAYLOAD,2022-09-09 22:00:00,15.08820948,0.000156,53.2169,290.7738,57.7564,230.3326,0.00089793,0.00014024,0.0,0 STARLINK-3520,1 51741U 22016AD  22252.91667824  .00014024  00000-0  89793-3 0  9995,2 51741  53.2169 290.7738 0001560  57.7564 230.3326 15.08820948  1306,6917.939,95.439,540.883,538.724,0.0
51741.0,STARLINK-3520,PAYLOAD,2022-09-10 14:00:01,15.08821559,0.0001720999999999,53.2164,287.7827,52.1105,259.1483,0.0024321,0.00038612,0.0,0 STARLINK-3520,1 51741U 22016AD  22253.58334491  .00038612  00000-0  24321-2 0  9994,2 51741  53.2164 287.7827 0001721  52.1105 259.1483 15.08821559 32020,6917.937,95.439,540.992,538.611,0.0
51741.0,STARLINK-3520,PAYLOAD,2022-09-10 22:00:00,15.08835138,0.0001519,53.2164,286.2845,59.0278,263.8288,0.00010726,1.419e-05,0.0,0 STARLINK-3520,1 51741U 22016AD  22253.91667824  .00001419  00000-0  10726-3 0  9990,2 51741  53.2164 286.2845 0001519  59.0278 263.8288 15.08835138  1306,6917.895,95.438,540.811,538.7090000000002,0.0
51741.0,STARLINK-3520,PAYLOAD,2022-09-11 06:00:00,15.08839195,0.0001548,53.2167,284.7887,57.0832,277.36400000000003,-0.0014695,-0.00023598,0.0,0 STARLINK-3520,1 51741U 22016AD  22254.25001157 -.00023598  00000-0 -14695-2 0  9991,2 51741  53.2167 284.7887 0001548  57.0832 277.3640 15.08839195 32127,6917.8830000000025,95.438,540.819,538.677,0.0
51741.0,STARLINK-3520,PAYLOAD,2022-09-11 14:00:01,15.08817764,0.0001624,53.2158,283.2932,50.5854,295.446,0.0019603,0.00031029,0.0,0 STARLINK-3520,1 51741U 22016AD  22254.58334491  .00031029  00000-0  19603-2 0  9997,2 51741  53.2158 283.2932 0001624  50.5854 295.4460 15.08817764  1304,6917.948,95.439,540.937,538.69,0.0
51741.0,STARLINK-3520,PAYLOAD,2022-09-11 22:00:00,15.08810997,0.0001472,53.2158,281.795,59.21,298.4114,0.0029568,0.00047046,0.0,0 STARLINK-3520,1 51741U 22016AD  22254.91667824  .00047046  00000-0  29568-2 0  9990,2 51741  53.2158 281.7950 0001472  59.2100 298.4114 15.08810997 32223,6917.969,95.439,540.852,538.816,0.0
51741.0,STARLINK-3520,PAYLOAD,2022-09-12 14:00:01,15.08844741,0.0001618,53.2154,278.8037,51.0154,329.7871,0.0006935,0.00010768,0.0,0 STARLINK-3520,1 51741U 22016AD  22255.58334491  .00010768  00000-0  69350-3 0  9990,2 51741  53.2154 278.8037 0001618  51.0154 329.7871 15.08844741  1300,6917.866,95.437,540.85,538.612,0.0
51741.0,STARLINK-3520,PAYLOAD,2022-09-12 22:00:00,15.08819709,0.000143,53.2154,277.3055,58.5781,333.8443,0.0016576,0.00026176,0.0,0 STARLINK-3520,1 51741U 22016AD  22255.91667824  .00026176  00000-0  16576-2 0  9997,2 51741  53.2154 277.3055 0001430  58.5781 333.8443 15.08819709  1301,6917.941999999999,95.439,540.797,538.818,0.0
51741.0,STARLINK-3520,PAYLOAD,2022-09-13 08:00:01,15.08840298,0.00016,53.2154,275.4365,53.7867,83.1106,-0.0004548999999999,-7.521e-05,0.0,0 STARLINK-3520,1 51741U 22016AD  22256.33334491 -.00007521  00000-0 -45490-3 0  9998,2 51741  53.2154 275.4365 0001600  53.7867  83.1106 15.08840298 32442,6917.879,95.438,540.851,538.638,0.0
51741.0,STARLINK-3520,PAYLOAD,2022-09-13 14:00:01,15.08838054,0.0001623,53.2155,274.3136,49.0111,6.5799,0.0012840999999999,0.00020206,0.0,0 STARLINK-3520,1 51741U 22016AD  22256.58334491  .00020206  00000-0  12841-2 0  9991,2 51741  53.2155 274.3136 0001623  49.0111   6.5799 15.08838054  1307,6917.886,95.438,540.874,538.629,0.0
51741.0,STARLINK-3520,PAYLOAD,2022-09-13 22:00:00,15.08838176,0.0001523,53.2155,272.8156,58.2841,8.9072,0.00022576,3.307e-05,0.0,0 STARLINK-3520,1 51741U 22016AD  22256.91667824  .00003307  00000-0  22576-3 0  9997,2 51741  53.2155 272.8156 0001523  58.2841   8.9072 15.08838176  1308,6917.886,95.438,540.805,538.697,0.0
51741.0,STARLINK-3520,PAYLOAD,2022-09-14 14:00:01,15.08829855,0.0001794,53.2155,269.8247,52.5535,37.7863,0.0006893,0.00010696,0.0,0 STARLINK-3520,1 51741U 22016AD  22257.58334491  .00010696  00000-0  68930-3 0  9995,2 51741  53.2155 269.8247 0001794  52.5535  37.7863 15.08829855  1304,6917.911,95.438,541.0169999999998,538.535,0.0
51741.0,STARLINK-3520,PAYLOAD,2022-09-14 22:00:00,15.08815953,0.0001675,53.2158,268.3265,59.8257,42.1102,0.0030936,0.00049259,0.0,0 STARLINK-3520,1 51741U 22016AD  22257.91667824  .00049259  00000-0  30936-2 0  9992,2 51741  53.2158 268.3265 0001675  59.8257  42.1102 15.08815953  1300,6917.954000000002,95.439,540.9780000000002,538.66,0.0
51741.0,STARLINK-3520,PAYLOAD,2022-09-15 14:00:01,15.08868121,0.0001844,53.2161,265.3352,52.5461,72.5786,-0.0023455,-0.00037452,0.0,0 STARLINK-3520,1 51741U 22016AD  22258.58334491 -.00037452  00000-0 -23455-2 0  9999,2 51741  53.2161 265.3352 0001844  52.5461  72.5786 15.08868121  1303,6917.794,95.436,540.935,538.384,0.0
51741.0,STARLINK-3520,PAYLOAD,2022-09-15 18:13:02,15.08848633,0.0001727,53.2176,264.5458,56.8999,303.2159,0.00012312,1.672e-05,0.0,0 STARLINK-3520,1 51741U 22016AD  22258.75905322  .00001672  00000-0  12312-3 0  9999,2 51741  53.2176 264.5458 0001727  56.8999 303.2159 15.08848633 31699,6917.854,95.437,540.914,538.524,0.0
51741.0,STARLINK-3520,PAYLOAD,2022-09-16 05:20:44,15.08835439,0.0001769,53.2177,262.4641,61.3647,298.7523,9.1672e-05,1.171e-05,0.0,0 STARLINK-3520,1 51741U 22016AD  22259.22274217  .00001171  00000-0  91672-4 0  9995,2 51741  53.2177 262.4641 0001769  61.3647 298.7523 15.08835439 32872,6917.894,95.438,540.9830000000002,538.536,0.0
51741.0,STARLINK-3520,PAYLOAD,2022-09-16 10:06:54,15.08836218,0.0001773,53.2177,261.572,61.2973,298.8198,9.2548e-05,1.185e-05,0.0,0 STARLINK-3520,1 51741U 22016AD  22259.42146245  .00001185  00000-0  92548-4 0  9994,2 51741  53.2177 261.5720 0001773  61.2973 298.8198 15.08836218 31791,6917.892,95.438,540.9830000000002,538.53,0.0
51741.0,STARLINK-3520,PAYLOAD,2022-09-17 09:57:41,15.08834256,0.0001724,53.2168,257.1119,57.2075,302.9083,-3.769e-05,-8.88e-06,0.0,0 STARLINK-3520,1 51741U 22016AD  22260.41506826 -.00000888  00000-0 -37690-4 0  9998,2 51741  53.2168 257.1119 0001724  57.2075 302.9083 15.08834256 33059,6917.898,95.438,540.956,538.57,0.0
51741.0,STARLINK-3520,PAYLOAD,2022-09-17 16:19:14,15.08838481,0.0001725,53.2169,255.9229,57.0274,303.0884,-2.8942e-05,-7.49e-06,0.0,0 STARLINK-3520,1 51741U 22016AD  22260.68002567 -.00000749  00000-0 -28942-4 0  9996,2 51741  53.2169 255.9229 0001725  57.0274 303.0884 15.08838481 31983,6917.885,95.438,540.943,538.557,0.0
51741.0,STARLINK-3520,PAYLOAD,2022-09-18 06:37:42,15.08840194,0.0001654,53.2168,253.2464,56.9143,303.2008,7.4668e-05,9.01e-06,0.0,0 STARLINK-3520,1 51741U 22016AD  22261.27618160  .00000901  00000-0  74668-4 0  9998,2 51741  53.2168 253.2464 0001654  56.9143 303.2008 15.08840194 33186,6917.88,95.438,540.889,538.601,0.0
51741.0,STARLINK-3520,PAYLOAD,2022-09-18 16:10:00,15.08847482,0.0001305,53.2175,251.4606,70.2205,289.8927,6.1407e-05,6.900000000000003e-06,0.0,0 STARLINK-3520,1 51741U 22016AD  22261.67361536  .00000690  00000-0  61407-4 0  9996,2 51741  53.2175 251.4606 0001305  70.2205 289.8927 15.08847482 33246,6917.858,95.437,540.625,538.82,0.0
51741.0,STARLINK-3520,PAYLOAD,2022-09-19 04:53:05,15.08838914,0.0001696999999999,53.2177,249.0836,59.0961,301.0197,0.00011905,1.607e-05,0.0,0 STARLINK-3520,1 51741U 22016AD  22262.20354075  .00001607  00000-0  11905-3 0  9992,2 51741  53.2177 249.0836 0001697  59.0961 301.0197 15.08838914 33329,6917.884,95.438,540.923,538.575,0.0
51741.0,STARLINK-3520,PAYLOAD,2022-09-19 16:00:48,15.088351,0.0001703,53.2178,247.0008,53.8356,306.2793,1.1369e-05,-1.07e-06,0.0,0 STARLINK-3520,1 51741U 22016AD  22262.66722721 -.00000107  00000-0  11369-4 0  9999,2 51741  53.2178 247.0008 0001703  53.8356 306.2793 15.08835100 32284,6917.895,95.438,540.938,538.582,0.0
51741.0,STARLINK-3520,PAYLOAD,2022-09-20 07:54:39,15.08846522,0.0001827,53.2174,244.026,63.4582,296.6597,-3.4146e-05,-8.32e-06,0.0,0 STARLINK-3520,1 51741U 22016AD  22263.32962177 -.00000832  00000-0 -34146-4 0  9998,2 51741  53.2174 244.0260 0001827  63.4582 296.6597 15.08846522 33490,6917.86,95.437,540.989,538.462,0.0
51741.0,STARLINK-3520,PAYLOAD,2022-09-21 15:42:21,15.08838963,0.0001521999999999,53.2154,238.0789,48.3199,311.7924,6.8495e-05,8.02e-06,0.0,0 STARLINK-3520,1 51741U 22016AD  22264.65442129  .00000802  00000-0  68495-4 0  9994,2 51741  53.2154 238.0789 0001522  48.3199 311.7924 15.08838963 33690,6917.884,95.438,540.8009999999998,538.696,0.0
51741.0,STARLINK-3520,PAYLOAD,2022-09-22 04:25:27,15.08832165,0.0001786999999999,53.216,235.7019,58.612,301.5047,-4.9013e-06,-3.66e-06,0.0,0 STARLINK-3520,1 51741U 22016AD  22265.18435101 -.00000366  00000-0 -49013-5 0  9998,2 51741  53.2160 235.7019 0001787  58.6120 301.5047 15.08832165 33778,6917.904,95.438,541.006,538.533,0.0
